STARLINK-36808          
1 67881U 26035C   26076.56338635  .00335926  00000+0  16790-2 0  9998
2 67881  97.2885   9.3558 0001456  81.7714 278.3720 15.80930596  5083
STARLINK-36817          
1 67882U 26035D   26076.56112604  .00326729  00000+0  16202-2 0  9994
2 67882  97.2903   9.3578 0002806 202.0418 158.0731 15.81126066  5082
STARLINK-36856          
1 67883U 26035E   26076.56188266  .00287636  00000+0  14493-2 0  9995
2 67883  97.2897   9.3572 0001581  95.4322 264.7126 15.80877549  5087
STARLINK-36842          
1 67884U 26035F   26076.58335648 -.00077488  00000+0 -52290-3 0  9998
2 67884  97.2866   9.3637 0001650  82.9143 351.3713 15.75209327  5021
STARLINK-36826          
1 67885U 26035G   26076.58335648 -.00341833  00000+0 -23635-2 0  9997
2 67885  97.2864   9.3840 0001189  98.8941  25.3085 15.75386758  5029
STARLINK-36390          
1 67886U 26035H   26076.58335648 -.00035523  00000+0 -23818-3 0  9998
2 67886  97.2865   9.3688 0001551 113.4081 332.8679 15.75198633  5076
STARLINK-36368          
1 67887U 26035J   26076.55812660  .00287899  00000+0  14505-2 0  9995
2 67887  97.2918   9.3610 0001527  87.2025 272.9418 15.80879183  5088
STARLINK-36801          
1 67888U 26035K   26076.55737785  .00465394  00000+0  22977-2 0  9990
2 67888  97.2894   9.3614 0001986  75.9074 284.2415 15.80868313  5089
STARLINK-36372          
1 67889U 26035L   26076.55586913  .00219791  00000+0  11156-2 0  9991
2 67889  97.2905   9.3623 0001071 121.2757 238.8616 15.80892653  5083
STARLINK-36363          
1 67890U 26035M   26076.58335648 -.00036066  00000+0 -24187-3 0  9996
2 67890  97.2870   9.3769 0001291  94.9709  11.3050 15.75197389  5022
STARLINK-36816          
1 67891U 26035N   26076.54610438  .00244257  00000+0  12365-2 0  9991
2 67891  97.2906   9.3727 0001945  87.7921 272.3570 15.80888197  5081
STARLINK-36813          
1 67892U 26035P   26076.55060558  .00276398  00000+0  13910-2 0  9993
2 67892  97.2906   9.3648 0001342 145.4871 214.6484 15.80933270  5087
