CCSDS_OMM_VERS = 2.0
CREATION_DATE  = 
ORIGINATOR     = 

OBJECT_NAME    = STARLINK-36808
OBJECT_ID      = 2026-035C
CENTER_NAME    = EARTH
REF_FRAME      = TEME
TIME_SYSTEM    = UTC
MEAN_ELEMENT_THEORY = SGP/SGP4

EPOCH          = 2026-03-17T13:31:16.580640
MEAN_MOTION    = 15.80930596
ECCENTRICITY   = .00014561
INCLINATION    = 97.2885
RA_OF_ASC_NODE = 9.3558
ARG_OF_PERICENTER = 81.7714
MEAN_ANOMALY   = 278.3720

EPHEMERIS_TYPE = 0
CLASSIFICATION_TYPE = U
NORAD_CAT_ID   = 67881
ELEMENT_SET_NO = 999
REV_AT_EPOCH   = 508
BSTAR          = .16790399E-2
MEAN_MOTION_DOT = .335926E-2
MEAN_MOTION_DDOT = 0

CCSDS_OMM_VERS = 2.0
CREATION_DATE  = 
ORIGINATOR     = 

OBJECT_NAME    = STARLINK-36817
OBJECT_ID      = 2026-035D
CENTER_NAME    = EARTH
REF_FRAME      = TEME
TIME_SYSTEM    = UTC
MEAN_ELEMENT_THEORY = SGP/SGP4

EPOCH          = 2026-03-17T13:28:01.289856
MEAN_MOTION    = 15.81126066
ECCENTRICITY   = .00028064
INCLINATION    = 97.2903
RA_OF_ASC_NODE = 9.3578
ARG_OF_PERICENTER = 202.0418
MEAN_ANOMALY   = 158.0731

EPHEMERIS_TYPE = 0
CLASSIFICATION_TYPE = U
NORAD_CAT_ID   = 67882
ELEMENT_SET_NO = 999
REV_AT_EPOCH   = 508
BSTAR          = .16202492E-2
MEAN_MOTION_DOT = .326729E-2
MEAN_MOTION_DDOT = 0

CCSDS_OMM_VERS = 2.0
CREATION_DATE  = 
ORIGINATOR     = 

OBJECT_NAME    = STARLINK-36856
OBJECT_ID      = 2026-035E
CENTER_NAME    = EARTH
REF_FRAME      = TEME
TIME_SYSTEM    = UTC
MEAN_ELEMENT_THEORY = SGP/SGP4

EPOCH          = 2026-03-17T13:29:06.661824
MEAN_MOTION    = 15.80877549
ECCENTRICITY   = .00015811
INCLINATION    = 97.2897
RA_OF_ASC_NODE = 9.3572
ARG_OF_PERICENTER = 95.4322
MEAN_ANOMALY   = 264.7126

EPHEMERIS_TYPE = 0
CLASSIFICATION_TYPE = U
NORAD_CAT_ID   = 67883
ELEMENT_SET_NO = 999
REV_AT_EPOCH   = 508
BSTAR          = .14493488E-2
MEAN_MOTION_DOT = .287636E-2
MEAN_MOTION_DDOT = 0

CCSDS_OMM_VERS = 2.0
CREATION_DATE  = 
ORIGINATOR     = 

OBJECT_NAME    = STARLINK-36842
OBJECT_ID      = 2026-035F
CENTER_NAME    = EARTH
REF_FRAME      = TEME
TIME_SYSTEM    = UTC
MEAN_ELEMENT_THEORY = SGP/SGP4

EPOCH          = 2026-03-17T14:00:01.999872
MEAN_MOTION    = 15.75209327
ECCENTRICITY   = .00016501
INCLINATION    = 97.2866
RA_OF_ASC_NODE = 9.3637
ARG_OF_PERICENTER = 82.9143
MEAN_ANOMALY   = 351.3713

EPHEMERIS_TYPE = 0
CLASSIFICATION_TYPE = U
NORAD_CAT_ID   = 67884
ELEMENT_SET_NO = 999
REV_AT_EPOCH   = 502
BSTAR          = -.52289753E-3
MEAN_MOTION_DOT = -.77488E-3
MEAN_MOTION_DDOT = 0

CCSDS_OMM_VERS = 2.0
CREATION_DATE  = 
ORIGINATOR     = 

OBJECT_NAME    = STARLINK-36826
OBJECT_ID      = 2026-035G
CENTER_NAME    = EARTH
REF_FRAME      = TEME
TIME_SYSTEM    = UTC
MEAN_ELEMENT_THEORY = SGP/SGP4

EPOCH          = 2026-03-17T14:00:01.999872
MEAN_MOTION    = 15.75386758
ECCENTRICITY   = .00011893
INCLINATION    = 97.2864
RA_OF_ASC_NODE = 9.3840
ARG_OF_PERICENTER = 98.8941
MEAN_ANOMALY   = 25.3085

EPHEMERIS_TYPE = 0
CLASSIFICATION_TYPE = U
NORAD_CAT_ID   = 67885
ELEMENT_SET_NO = 999
REV_AT_EPOCH   = 502
BSTAR          = -.23634539E-2
MEAN_MOTION_DOT = -.341833E-2
MEAN_MOTION_DDOT = 0

CCSDS_OMM_VERS = 2.0
CREATION_DATE  = 
ORIGINATOR     = 

OBJECT_NAME    = STARLINK-36390
OBJECT_ID      = 2026-035H
CENTER_NAME    = EARTH
REF_FRAME      = TEME
TIME_SYSTEM    = UTC
MEAN_ELEMENT_THEORY = SGP/SGP4

EPOCH          = 2026-03-17T14:00:01.999872
MEAN_MOTION    = 15.75198633
ECCENTRICITY   = .00015512
INCLINATION    = 97.2865
RA_OF_ASC_NODE = 9.3688
ARG_OF_PERICENTER = 113.4081
MEAN_ANOMALY   = 332.8679

EPHEMERIS_TYPE = 0
CLASSIFICATION_TYPE = U
NORAD_CAT_ID   = 67886
ELEMENT_SET_NO = 999
REV_AT_EPOCH   = 507
BSTAR          = -.23818102E-3
MEAN_MOTION_DOT = -.35523E-3
MEAN_MOTION_DDOT = 0

CCSDS_OMM_VERS = 2.0
CREATION_DATE  = 
ORIGINATOR     = 

OBJECT_NAME    = STARLINK-36368
OBJECT_ID      = 2026-035J
CENTER_NAME    = EARTH
REF_FRAME      = TEME
TIME_SYSTEM    = UTC
MEAN_ELEMENT_THEORY = SGP/SGP4

EPOCH          = 2026-03-17T13:23:42.138240
MEAN_MOTION    = 15.80879183
ECCENTRICITY   = .00015273
INCLINATION    = 97.2918
RA_OF_ASC_NODE = 9.3610
ARG_OF_PERICENTER = 87.2025
MEAN_ANOMALY   = 272.9418

EPHEMERIS_TYPE = 0
CLASSIFICATION_TYPE = U
NORAD_CAT_ID   = 67887
ELEMENT_SET_NO = 999
REV_AT_EPOCH   = 508
BSTAR          = .14505225E-2
MEAN_MOTION_DOT = .287899E-2
MEAN_MOTION_DDOT = 0

CCSDS_OMM_VERS = 2.0
CREATION_DATE  = 
ORIGINATOR     = 

OBJECT_NAME    = STARLINK-36801
OBJECT_ID      = 2026-035K
CENTER_NAME    = EARTH
REF_FRAME      = TEME
TIME_SYSTEM    = UTC
MEAN_ELEMENT_THEORY = SGP/SGP4

EPOCH          = 2026-03-17T13:22:37.446240
MEAN_MOTION    = 15.80868313
ECCENTRICITY   = .00019864
INCLINATION    = 97.2894
RA_OF_ASC_NODE = 9.3614
ARG_OF_PERICENTER = 75.9074
MEAN_ANOMALY   = 284.2415

EPHEMERIS_TYPE = 0
CLASSIFICATION_TYPE = U
NORAD_CAT_ID   = 67888
ELEMENT_SET_NO = 999
REV_AT_EPOCH   = 508
BSTAR          = .22976864E-2
MEAN_MOTION_DOT = .465394E-2
MEAN_MOTION_DDOT = 0

CCSDS_OMM_VERS = 2.0
CREATION_DATE  = 
ORIGINATOR     = 

OBJECT_NAME    = STARLINK-36372
OBJECT_ID      = 2026-035L
CENTER_NAME    = EARTH
REF_FRAME      = TEME
TIME_SYSTEM    = UTC
MEAN_ELEMENT_THEORY = SGP/SGP4

EPOCH          = 2026-03-17T13:20:27.092832
MEAN_MOTION    = 15.80892653
ECCENTRICITY   = .00010716
INCLINATION    = 97.2905
RA_OF_ASC_NODE = 9.3623
ARG_OF_PERICENTER = 121.2757
MEAN_ANOMALY   = 238.8616

EPHEMERIS_TYPE = 0
CLASSIFICATION_TYPE = U
NORAD_CAT_ID   = 67889
ELEMENT_SET_NO = 999
REV_AT_EPOCH   = 508
BSTAR          = .11156251E-2
MEAN_MOTION_DOT = .219791E-2
MEAN_MOTION_DDOT = 0

CCSDS_OMM_VERS = 2.0
CREATION_DATE  = 
ORIGINATOR     = 

OBJECT_NAME    = STARLINK-36363
OBJECT_ID      = 2026-035M
CENTER_NAME    = EARTH
REF_FRAME      = TEME
TIME_SYSTEM    = UTC
MEAN_ELEMENT_THEORY = SGP/SGP4

EPOCH          = 2026-03-17T14:00:01.999872
MEAN_MOTION    = 15.75197389
ECCENTRICITY   = .00012912
INCLINATION    = 97.2870
RA_OF_ASC_NODE = 9.3769
ARG_OF_PERICENTER = 94.9709
MEAN_ANOMALY   = 11.3050

EPHEMERIS_TYPE = 0
CLASSIFICATION_TYPE = U
NORAD_CAT_ID   = 67890
ELEMENT_SET_NO = 999
REV_AT_EPOCH   = 502
BSTAR          = -.24187491E-3
MEAN_MOTION_DOT = -.36066E-3
MEAN_MOTION_DDOT = 0

CCSDS_OMM_VERS = 2.0
CREATION_DATE  = 
ORIGINATOR     = 

OBJECT_NAME    = STARLINK-36816
OBJECT_ID      = 2026-035N
CENTER_NAME    = EARTH
REF_FRAME      = TEME
TIME_SYSTEM    = UTC
MEAN_ELEMENT_THEORY = SGP/SGP4

EPOCH          = 2026-03-17T13:06:23.418432
MEAN_MOTION    = 15.80888197
ECCENTRICITY   = .00019453
INCLINATION    = 97.2906
RA_OF_ASC_NODE = 9.3727
ARG_OF_PERICENTER = 87.7921
MEAN_ANOMALY   = 272.3570

EPHEMERIS_TYPE = 0
CLASSIFICATION_TYPE = U
NORAD_CAT_ID   = 67891
ELEMENT_SET_NO = 999
REV_AT_EPOCH   = 508
BSTAR          = .12364534E-2
MEAN_MOTION_DOT = .244257E-2
MEAN_MOTION_DDOT = 0

CCSDS_OMM_VERS = 2.0
CREATION_DATE  = 
ORIGINATOR     = 

OBJECT_NAME    = STARLINK-36813
OBJECT_ID      = 2026-035P
CENTER_NAME    = EARTH
REF_FRAME      = TEME
TIME_SYSTEM    = UTC
MEAN_ELEMENT_THEORY = SGP/SGP4

EPOCH          = 2026-03-17T13:12:52.322112
MEAN_MOTION    = 15.80933270
ECCENTRICITY   = .00013422
INCLINATION    = 97.2906
RA_OF_ASC_NODE = 9.3648
ARG_OF_PERICENTER = 145.4871
MEAN_ANOMALY   = 214.6484

EPHEMERIS_TYPE = 0
CLASSIFICATION_TYPE = U
NORAD_CAT_ID   = 67892
ELEMENT_SET_NO = 999
REV_AT_EPOCH   = 508
BSTAR          = .13910261E-2
MEAN_MOTION_DOT = .276398E-2
MEAN_MOTION_DDOT = 0

